{"spkid": "50511134", "covariance": {"data": [["1.702483271843335E-12", "-1.612606730034781E-12", "4.347392860527662E-10", "-1.414731654485304E-11", "2.194485633905198E-10", "2.434323704004483E-10"], ["-1.612606730034781E-12", "1.527477413938198E-12", "-4.117960523429853E-10", "1.339795881086583E-11", "-2.078774974586521E-10", "-2.305629317176148E-10"], ["4.347392860527662E-10", "-4.117960523429853E-10", "1.118866075061554E-7", "-3.66947289463621E-9", "5.694903685057968E-8", "6.168069776182029E-8"], ["-1.414731654485304E-11", "1.339795881086583E-11", "-3.66947289463621E-9", "1.745065224325746E-10", "-1.924021889027486E-9", "-2.048615114975668E-9"], ["2.194485633905198E-10", "-2.078774974586521E-10", "5.694903685057968E-8", "-1.924021889027486E-9", "2.930316084190614E-8", "3.08773244084571E-8"], ["2.434323704004483E-10", "-2.305629317176148E-10", "6.168069776182029E-8", "-2.048615114975668E-9", "3.08773244084571E-8", "3.529281527213986E-8"]], "elements": [{"label": "e", "name": "e", "sigma": 1.30479242481068e-06, "value": ".1095673475888268", "title": "eccentricity", "units": null}, {"label": "q", "sigma": 1.23591157205449e-06, "name": "q", "units": "au", "title": "perihelion distance", "value": ".851244871323504"}, {"title": "time of perihelion passage", "value": "2457549.218145224199", "units": "TDB", "sigma": 0.000334494555271316, "name": "tp", "label": "tp"}, {"label": "node", "name": "om", "sigma": 1.32100916890298e-05, "title": "longitude of the ascending node", "value": "4.021342884429397", "units": "deg"}, {"label": "peri", "sigma": 0.000171181660355034, "name": "w", "units": "deg", "title": "argument of perihelion", "value": "42.70755174394621"}, {"label": "i", "sigma": 0.000187863821083624, "name": "i", "title": "inclination", "value": "9.74706704350389", "units": "deg"}], "labels": ["e", "q", "tp", "node", "peri", "i"], "epoch": "2457463.5"}, "elements": [{"name": "e", "sigma": "1.3046E-6", "units": null, "title": "eccentricity", "value": ".1096068280432681", "label": "e"}, {"label": "a", "name": "a", "sigma": "8.4225E-10", "value": ".9561715773095094", "title": "semi-major axis", "units": "au"}, {"label": "q", "units": "au", "title": "perihelion distance", "value": ".8513686436554856", "sigma": "1.2479E-6", "name": "q"}, {"units": "deg", "title": "inclination; angle with respect to x-y ecliptic plane", "value": "9.74599302959783", "sigma": ".0001879", "name": "i", "label": "i"}, {"units": "deg", "title": "longitude of the ascending node", "value": "3.903437134898499", "sigma": "1.2105E-5", "name": "om", "label": "node"}, {"label": "peri", "name": "w", "sigma": ".00016757", "value": "42.78836291852766", "title": "argument of perihelion", "units": "deg"}, {"label": "M", "sigma": ".0004028", "name": "ma", "units": "deg", "value": "249.281908787157", "title": "mean anomaly"}, {"sigma": ".00038201", "name": "tp", "units": "TDB", "title": "time of perihelion passage", "value": "2461305.531183917318", "label": "tp"}, {"value": "341.5090144351078", "title": "sidereal orbital period", "units": "d", "name": "per", "sigma": "4.5123E-7", "label": "period"}, {"value": "1.054144941372861", "title": "mean motion", "units": "deg/d", "sigma": "1.3928E-9", "name": "n", "label": "n"}, {"sigma": "9.3457E-10", "name": "ad", "units": "au", "value": "1.060974510963533", "title": "aphelion distance", "label": "Q"}], "epoch": "2461200.5"}